ONEWEB-0497             
1 54116U 22138D   22321.91667824 -.00967310  00000+0 -15348+0 0  9993
2 54116  87.4453 208.4716 0013947 197.9393 185.6563 14.75358353  4757
ONEWEB-0499             
1 54117U 22138E   22321.91667824 -.00949781  00000+0 -14788+0 0  9993
2 54117  87.4503 208.4644 0013518 190.2012 235.2959 14.76112538  1305
ONEWEB-0500             
1 54118U 22138F   22321.91667824 -.00933118  00000+0 -13572+0 0  9991
2 54118  87.4552 208.4435 0010505 182.7677   4.1280 14.78979318  1303
ONEWEB-0501             
1 54119U 22138G   22321.91667824 -.00947999  00000+0 -15267+0 0  9997
2 54119  87.4437 208.4651 0014356 200.7601 145.4294 14.74653562  4754
ONEWEB-0502             
1 54120U 22138H   22321.91667824 -.00962475  00000+0 -14327+0 0  9991
2 54120  87.4536 208.4499 0011325 182.0024 323.8234 14.78087327  4761
ONEWEB-0503             
1 54121U 22138J   22321.91667824 -.00985149  00000+0 -15267+0 0  9999
2 54121  87.4493 208.4585 0013530 190.1681 244.3234 14.76426048  4750
ONEWEB-0504             
1 54122U 22138K   22321.91667824 -.00968329  00000+0 -14293+0 0  9999
2 54122  87.4550 208.4524 0010690 183.0165 347.2084 14.78469728  1308
ONEWEB-0505             
1 54123U 22138L   22321.91667824 -.00986527  00000+0 -16204+0 0  9994
2 54123  87.4425 208.4696 0013968 207.7454  96.9863 14.73938660  1300
ONEWEB-0506             
1 54124U 22138M   22321.91667824 -.00942825  00000+0 -15182+0 0  9992
2 54124  87.4443 208.4747 0015659 208.3490 117.0478 14.74622725  4756
ONEWEB-0507             
1 54125U 22138N   22321.91667824 -.00926869  00000+0 -13258+0 0  9995
2 54125  87.4569 208.4407 0010194 184.5865  35.7959 14.79664103  4761
ONEWEB-0508             
1 54126U 22138P   22321.91667824 -.00934744  00000+0 -14051+0 0  9999
2 54126  87.4539 208.4567 0012212 188.6038 290.7134 14.77573880  4752
ONEWEB-0509             
1 54127U 22138Q   22321.91667824 -.00954764  00000+0 -15279+0 0  9997
2 54127  87.4419 208.4740 0014316 199.1498 166.9480 14.74946956  4750
ONEWEB-0510             
1 54128U 22138R   22321.91667824 -.00021172  00000+0 -21075-2 0  9990
2 54128  87.1824 208.2190 0009648 200.7192 183.2796 14.91851236  4765
ONEWEB-0511             
1 54129U 22138S   22321.91667824 -.00939868  00000+0 -13970+0 0  9993
2 54129  87.4513 208.4532 0011488 182.8909 328.6345 14.78074765  1308
ONEWEB-0512             
1 54130U 22138T   22321.91667824 -.01006770  00000+0 -15972+0 0  9997
2 54130  87.4444 208.4600 0014452 198.2935 172.9968 14.74994776  1303
ONEWEB-0513             
1 54131U 22138U   22321.91667824 -.01174568  00000+0 -38344+0 0  9997
2 54131  87.5074 208.7767 0009839 198.6748 356.3264 14.41963664  1303
ONEWEB-0514             
1 54132U 22138V   22321.91667824 -.00986293  00000+0 -14668+0 0  9996
2 54132  87.4523 208.4459 0011257 184.9973 336.1722 14.78203485  1305
ONEWEB-0515             
1 54133U 22138W   22321.91667824 -.00009901  00000+0 -99153-3 0  9995
2 54133  87.1677 208.2069 0010134 191.9498 170.5726 14.91602447  4764
ONEWEB-0516             
1 54134U 22138X   22321.91667824 -.00975134  00000+0 -14597+0 0  9991
2 54134  87.4529 208.4533 0011316 184.3205 314.7355 14.77891361  1303
ONEWEB-0517             
1 54135U 22138Y   22321.91667824 -.00932289  00000+0 -14200+0 0  9997
2 54135  87.4499 208.4550 0012787 189.4647 266.4131 14.77000229  1308
ONEWEB-0518             
1 54136U 22138Z   22321.91667824 -.00986406  00000+0 -15546+0 0  9992
2 54136  87.4494 208.4660 0013907 194.9574 205.3884 14.75708196  4756
ONEWEB-0519             
1 54137U 22138AA  22321.91667824 -.00934619  00000+0 -13453+0 0  9997
2 54137  87.4559 208.4482 0011152 183.1437  11.2855 14.79414334  4764
ONEWEB-0520             
1 54138U 22138AB  22321.91667824 -.00842396  00000+0 -12732+0 0  9997
2 54138  87.4533 208.4603 0012696 188.7335 276.2661 14.77040431  4752
ONEWEB-0521             
1 54139U 22138AC  22321.91667824 -.00948726  00000+0 -15736+0 0  9999
2 54139  87.4392 208.4764 0013684 212.7679  60.7492 14.73398284  4757
ONEWEB-0522             
1 54140U 22138AD  22321.91667824 -.00947337  00000+0 -15100+0 0  9993
2 54140  87.4446 208.4735 0014846 201.2335 157.1152 14.75085360  1302
ONEWEB-0523             
1 54141U 22138AE  22321.91667824 -.00021261  00000+0 -21195-2 0  9997
2 54141  87.1692 208.2185 0009398 199.6159 179.5765 14.91794905  1308
ONEWEB-0524             
1 54142U 22138AF  22321.91667824 -.00021313  00000+0 -21262-2 0  9991
2 54142  87.1729 208.2079 0009458 198.7492 177.0769 14.91765034  4760
ONEWEB-0525             
1 54143U 22138AG  22321.91667824 -.00971270  00000+0 -15032+0 0  9993
2 54143  87.4497 208.4630 0012808 189.0287 253.0839 14.76447097  4750
ONEWEB-0526             
1 54144U 22138AH  22321.91667824 -.01006169  00000+0 -16125+0 0  9995
2 54144  87.4422 208.4695 0014822 202.8418 139.4259 14.74553966  4752
ONEWEB-0529             
1 54145U 22138AJ  22321.91667824 -.00940266  00000+0 -14806+0 0  9994
2 54145  87.4486 208.4616 0014568 195.7903 197.4679 14.75586233  1304
ONEWEB-0531             
1 54146U 22138AK  22321.91667824 -.00021500  00000+0 -21495-2 0  9991
2 54146  87.1696 208.2218 0009530 198.8914 169.4008 14.91678153  4769
ONEWEB-0535             
1 54147U 22138AL  22321.91667824 -.00976388  00000+0 -14049+0 0  9999
2 54147  87.4555 208.4448 0010350 182.0100  14.3800 14.79572122  4761
ONEWEB-0536             
1 54148U 22138AM  22321.91667824 -.00021845  00000+0 -21913-2 0  9990
2 54148  87.1747 208.2409 0009729 191.9983 163.6862 14.91544726  1309
GSLV R/B                
1 54149U 22138AN  22321.78928597  .00001037  00000+0  11136-3 0  9999
2 54149  87.3899 208.4212 0024959 183.6428 176.4620 14.87300767  3876
GONETS-M 23             
1 54150U 22139A   22321.81488761  .00000010  00000+0  00000+0 0  9994
2 54150  82.5069  80.6767 0016988 188.3417 171.7386 12.41994831  3238
GONETS-M 24             
1 54151U 22139B   22321.79740629  .00000010  00000+0  00000+0 0  9996
2 54151  82.4981  80.6454 0012683 208.9230 151.1147 12.43606292  3234
GONETS-M 25             
1 54152U 22139C   22321.87029582  .00000010  00000+0  00000+0 0  9994
2 54152  82.5013  80.5998 0014118 202.6790 157.3668 12.43968761  3240
PROGRESS-MS 21          
1 54155U 22140A   22321.46489271  .00009701  00000+0  17730-3 0  9997
2 54155  51.6437 297.2728 0006979  83.6227  60.5569 15.50058579368951
STARLINK-5290           
1 54157U 22141A   22321.91667824 -.01207021  00000+0 -12643-1 0  9996
2 54157  53.2175  40.6827 0001472  47.0261 124.4914 15.66452827  1303
STARLINK-5297           
1 54158U 22141B   22321.91667824 -.01205594  00000+0 -12683-1 0  9994
2 54158  53.2175  40.6885 0001405  51.1376 117.5564 15.66343493  1309
STARLINK-5294           
1 54159U 22141C   22321.91667824 -.01205629  00000+0 -12666-1 0  9995
2 54159  53.2176  40.6865 0001318  59.8244 109.7973 15.66378077  1304
STARLINK-5233           
1 54160U 22141D   22321.91667824  .00258079  00000+0  18003-2 0  9993
2 54160  53.2177  40.5601 0002732  19.5728 212.8686 15.73029464  1303
STARLINK-5269           
1 54161U 22141E   22321.91667824 -.01198781  00000+0 -12571-1 0  9993
2 54161  53.2175  40.6847 0001345  59.4610 111.0882 15.66407569  1303
STARLINK-5273           
1 54162U 22141F   22321.91667824 -.01221753  00000+0 -12790-1 0  9993
2 54162  53.2175  40.6807 0001371  53.7113 118.7466 15.66500717  1305
STARLINK-5161           
1 54163U 22141G   22321.91667824 -.00147481  00000+0 -10633-2 0  9993
2 54163  53.2186  40.6168 0003046  14.3267 193.6893 15.73226932  1300
STARLINK-5278           
1 54164U 22141H   22321.91667824 -.00058429  00000+0 -41434-3 0  9991
2 54164  53.2186  40.6177 0002841  17.9715 189.4049 15.73218556  1309
STARLINK-5279           
1 54165U 22141J   22321.91667824 -.01206116  00000+0 -12597-1 0  9997
2 54165  53.2176  40.6788 0001304  60.0623 113.3213 15.66523460  1301
STARLINK-5280           
1 54166U 22141K   22321.91667824 -.00128882  00000+0 -92590-3 0  9993
2 54166  53.2181  40.6132 0002591  17.5350 191.0696 15.73247251  1301
STARLINK-5243           
1 54167U 22141L   22321.91667824 -.01217007  00000+0 -12702-1 0  9998
2 54167  53.2176  40.6770 0001277  59.8852 114.4039 15.66564938  1306
STARLINK-5245           
1 54168U 22141M   22321.91667824 -.00170051  00000+0 -12275-2 0  9991
2 54168  53.2183  40.6120 0002761  22.7847 187.0138 15.73275456  3317
STARLINK-5282           
1 54169U 22141N   22321.91667824  .00010286  00000+0  77626-4 0  9996
2 54169  53.2182  40.6179 0002969  23.4899 183.2387 15.73198454  1309
STARLINK-5155           
1 54170U 22141P   22321.91667824 -.00052675  00000+0 -37321-3 0  9995
2 54170  53.2195  40.6123 0002825  12.7187 197.6616 15.73195975  1305
STARLINK-5229           
1 54171U 22141Q   22321.91667824  .00140337  00000+0  99139-3 0  9992
2 54171  53.2177  40.6133 0002744  22.4480 183.7150 15.73110789  1300
STARLINK-5117           
1 54172U 22141R   22321.91667824  .00210725  00000+0  14772-2 0  9991
2 54172  53.2176  40.6026 0003070  13.7964 197.7655 15.73059150  1303
STARLINK-5242           
1 54173U 22141S   22321.91667824 -.00061974  00000+0 -43970-3 0  9997
2 54173  53.2180  40.6126 0002745  16.7746 192.3489 15.73231419  1305
STARLINK-5248           
1 54174U 22141T   22321.91667824 -.00092602  00000+0 -66189-3 0  9997
2 54174  53.2163  39.8166 0001831  28.5717 207.3306 15.73224948  1309
STARLINK-5256           
1 54175U 22141U   22321.91667824 -.00096788  00000+0 -69199-3 0  9991
2 54175  53.2184  40.6090 0002962  13.4248 197.5485 15.73232000  1303
STARLINK-5154           
1 54176U 22141V   22321.91667824  .00008883  00000+0  67646-4 0  9995
2 54176  53.2175  40.6013 0003114  19.5109 194.3394 15.73199846  1306
STARLINK-5186           
1 54177U 22141W   22321.91667824 -.00006808  00000+0 -44055-4 0  9992
2 54177  53.2189  40.6079 0002884  21.4872 190.6219 15.73221579  1300
